start=new Date('2022-08-12T00:00:00.000Z').valueOf();
sats=[{"CLASSIFICATION_TYPE":"U","RA_OF_ASC_NODE":"209.4661","RCS_SIZE":"LARGE","FILE":"3534357","BSTAR":"0.00001201500000","MEAN_ELEMENT_THEORY":"SGP4","TIME_SYSTEM":"UTC","MEAN_ANOMALY":"291.0722","INCLINATION":"53.0535","NORAD_CAT_ID":"45535","PERIAPSIS":"546.038","REV_AT_EPOCH":"12766","LAUNCH_DATE":"2020-04-22","MEAN_MOTION_DOT":"-0.00000103","OBJECT_TYPE":"PAYLOAD","CENTER_NAME":"EARTH","MEAN_MOTION":"15.06408976","ARG_OF_PERICENTER":"69.0444","EPHEMERIS_TYPE":"0","SITE":"AFETR","GP_ID":"210032118","EPOCH":"2022-08-11T16:36:18.712800","TLE_LINE1":"1 45535U 20025E   22223.69188325 -.00000103  00000-0  12015-4 0  9992","SEMIMAJOR_AXIS":"6925.321","ECCENTRICITY":"0.00016580","TLE_LINE2":"2 45535  53.0535 209.4661 0001658  69.0444 291.0722 15.06408976127661","REF_FRAME":"TEME","MEAN_MOTION_DDOT":"0.0000000000000","OBJECT_ID":"2020-025E","OBJECT_NAME":"STARLINK-1350","ELEMENT_SET_NO":"999","PERIOD":"95.592","DECAY_DATE":null,"COUNTRY_CODE":"US","APOAPSIS":"548.334"},{"DECAY_DATE":null,"PERIOD":"95.592","COUNTRY_CODE":"US","APOAPSIS":"548.310","OBJECT_NAME":"STARLINK-1352","ELEMENT_SET_NO":"999","TLE_LINE2":"2 45536  53.0529 209.4533 0001588  78.2245 281.8922 15.06401238127669","MEAN_MOTION_DDOT":"0.0000000000000","REF_FRAME":"TEME","OBJECT_ID":"2020-025F","SEMIMAJOR_AXIS":"6925.345","ECCENTRICITY":"0.00015880","GP_ID":"210032126","EPOCH":"2022-08-11T16:41:36.823776","TLE_LINE1":"1 45536U 20025F   22223.69556509  .00001611  00000-0  12701-3 0  9991","MEAN_MOTION_DOT":"0.00001611","OBJECT_TYPE":"PAYLOAD","CENTER_NAME":"EARTH","MEAN_MOTION":"15.06401238","ARG_OF_PERICENTER":"78.2245","SITE":"AFETR","EPHEMERIS_TYPE":"0","PERIAPSIS":"546.110","REV_AT_EPOCH":"12766","LAUNCH_DATE":"2020-04-22","RA_OF_ASC_NODE":"209.4533","CLASSIFICATION_TYPE":"U","FILE":"3534358","BSTAR":"0.00012701000000","RCS_SIZE":"LARGE","MEAN_ELEMENT_THEORY":"SGP4","TIME_SYSTEM":"UTC","NORAD_CAT_ID":"45536","INCLINATION":"53.0529","MEAN_ANOMALY":"281.8922"},{"OBJECT_NAME":"STARLINK-1353","ELEMENT_SET_NO":"999","PERIOD":"94.352","DECAY_DATE":null,"COUNTRY_CODE":"US","APOAPSIS":"487.700","SEMIMAJOR_AXIS":"6865.311","ECCENTRICITY":"0.00007640","TLE_LINE2":"2 45537  52.9785 157.9641 0000764 103.7604 256.3478 15.26203575128319","MEAN_MOTION_DDOT":"0.0000000000000","REF_FRAME":"TEME","OBJECT_ID":"2020-025G","CENTER_NAME":"EARTH","OBJECT_TYPE":"PAYLOAD","MEAN_MOTION_DOT":"0.00019377","MEAN_MOTION":"15.26203575","ARG_OF_PERICENTER":"103.7604","SITE":"AFETR","EPHEMERIS_TYPE":"0","GP_ID":"210032352","EPOCH":"2022-08-11T04:58:54.617376","TLE_LINE1":"1 45537U 20025G   22223.20757659  .00019377  00000-0  75035-3 0  9995","RA_OF_ASC_NODE":"157.9641","CLASSIFICATION_TYPE":"U","BSTAR":"0.00075035000000","FILE":"3534358","RCS_SIZE":"LARGE","MEAN_ELEMENT_THEORY":"SGP4","TIME_SYSTEM":"UTC","INCLINATION":"52.9785","NORAD_CAT_ID":"45537","MEAN_ANOMALY":"256.3478","PERIAPSIS":"486.651","LAUNCH_DATE":"2020-04-22","REV_AT_EPOCH":"12831"},{"ELEMENT_SET_NO":"999","OBJECT_NAME":"STARLINK-1362","APOAPSIS":"547.997","COUNTRY_CODE":"US","DECAY_DATE":null,"PERIOD":"95.590","ECCENTRICITY":"0.00012760","SEMIMAJOR_AXIS":"6925.249","OBJECT_ID":"2020-025H","MEAN_MOTION_DDOT":"0.0000000000000","REF_FRAME":"TEME","TLE_LINE2":"2 45538  53.0542 210.8351 0001276  51.9987 308.1117 15.06432633128208","SITE":"AFETR","EPHEMERIS_TYPE":"0","ARG_OF_PERICENTER":"51.9987","MEAN_MOTION":"15.06432633","CENTER_NAME":"EARTH","OBJECT_TYPE":"PAYLOAD","MEAN_MOTION_DOT":"-0.00007742","TLE_LINE1":"1 45538U 20025H   22223.38962656 -.00007742  00000-0 -50096-3 0  9995","GP_ID":"210025265","EPOCH":"2022-08-11T09:21:03.734784","INCLINATION":"53.0542","NORAD_CAT_ID":"45538","MEAN_ANOMALY":"308.1117","TIME_SYSTEM":"UTC","MEAN_ELEMENT_THEORY":"SGP4","FILE":"3534319","BSTAR":"-0.00050096000000","RCS_SIZE":"LARGE","RA_OF_ASC_NODE":"210.8351","CLASSIFICATION_TYPE":"U","REV_AT_EPOCH":"12820","LAUNCH_DATE":"2020-04-22","PERIAPSIS":"546.230"},{"ELEMENT_SET_NO":"999","OBJECT_NAME":"STARLINK-1367","COUNTRY_CODE":"US","APOAPSIS":"271.993","PERIOD":"89.879","DECAY_DATE":null,"ECCENTRICITY":"0.00053170","SEMIMAJOR_AXIS":"6646.594","OBJECT_ID":"2020-025J","TLE_LINE2":"2 45539  53.0349 332.6552 0005317 291.5878 141.3903 16.02153069130978","REF_FRAME":"TEME","MEAN_MOTION_DDOT":"0.0054008000000","ARG_OF_PERICENTER":"291.5878","EPHEMERIS_TYPE":"0","SITE":"AFETR","CENTER_NAME":"EARTH","OBJECT_TYPE":"PAYLOAD","MEAN_MOTION_DOT":"0.02488837","MEAN_MOTION":"16.02153069","TLE_LINE1":"1 45539U 20025J   22224.15282851  .02488837  54008-2  45223-2 0  9996","EPOCH":"2022-08-12T03:40:04.383264","GP_ID":"210042538","MEAN_ELEMENT_THEORY":"SGP4","TIME_SYSTEM":"UTC","MEAN_ANOMALY":"141.3903","NORAD_CAT_ID":"45539","INCLINATION":"53.0349","CLASSIFICATION_TYPE":"U","RA_OF_ASC_NODE":"332.6552","RCS_SIZE":"LARGE","FILE":"3534813","BSTAR":"0.00452230000000","PERIAPSIS":"264.925","LAUNCH_DATE":"2020-04-22","REV_AT_EPOCH":"13097"},{"SEMIMAJOR_AXIS":"6925.342","ECCENTRICITY":"0.00015150","TLE_LINE2":"2 45540  53.0553 209.4466 0001515  70.4717 289.6436 15.06402246127660","MEAN_MOTION_DDOT":"0.0000000000000","REF_FRAME":"TEME","OBJECT_ID":"2020-025K","OBJECT_NAME":"STARLINK-1368","ELEMENT_SET_NO":"999","DECAY_DATE":null,"PERIOD":"95.592","COUNTRY_CODE":"US","APOAPSIS":"548.256","RA_OF_ASC_NODE":"209.4466","CLASSIFICATION_TYPE":"U","RCS_SIZE":"LARGE","FILE":"3534363","BSTAR":"-0.00000202890000","TIME_SYSTEM":"UTC","MEAN_ELEMENT_THEORY":"SGP4","INCLINATION":"53.0553","NORAD_CAT_ID":"45540","MEAN_ANOMALY":"289.6436","PERIAPSIS":"546.157","LAUNCH_DATE":"2020-04-22","REV_AT_EPOCH":"12766","CENTER_NAME":"EARTH","OBJECT_TYPE":"PAYLOAD","MEAN_MOTION_DOT":"-0.00000312","MEAN_MOTION":"15.06402246","ARG_OF_PERICENTER":"70.4717","SITE":"AFETR","EPHEMERIS_TYPE":"0","GP_ID":"210032378","EPOCH":"2022-08-11T16:46:55.340832","TLE_LINE1":"1 45540U 20025K   22223.69925163 -.00000312  00000-0 -20289-5 0  9993"},{"PERIOD":"95.592","DECAY_DATE":null,"APOAPSIS":"548.150","COUNTRY_CODE":"US","OBJECT_NAME":"STARLINK-1369","ELEMENT_SET_NO":"999","REF_FRAME":"TEME","MEAN_MOTION_DDOT":"0.0000000000000","TLE_LINE2":"2 45541  53.0554 209.4181 0001335  57.9756 302.1363 15.06396087127664","OBJECT_ID":"2020-025L","SEMIMAJOR_AXIS":"6925.361","ECCENTRICITY":"0.00013350","EPOCH":"2022-08-11T16:52:12.573984","GP_ID":"210032156","TLE_LINE1":"1 45541U 20025L   22223.70292331  .00000360  00000-0  43047-4 0  9997","MEAN_MOTION":"15.06396087","OBJECT_TYPE":"PAYLOAD","CENTER_NAME":"EARTH","MEAN_MOTION_DOT":"0.00000360","EPHEMERIS_TYPE":"0","SITE":"AFETR","ARG_OF_PERICENTER":"57.9756","LAUNCH_DATE":"2020-04-22","REV_AT_EPOCH":"12766","PERIAPSIS":"546.301","FILE":"3534363","BSTAR":"0.00004304700000","RCS_SIZE":"LARGE","CLASSIFICATION_TYPE":"U","RA_OF_ASC_NODE":"209.4181","MEAN_ANOMALY":"302.1363","NORAD_CAT_ID":"45541","INCLINATION":"53.0554","MEAN_ELEMENT_THEORY":"SGP4","TIME_SYSTEM":"UTC"},{"OBJECT_ID":"2020-025M","TLE_LINE2":"2 45542  53.0547 209.5830 0001589  66.1649 293.9507 15.06399342127656","MEAN_MOTION_DDOT":"0.0000000000000","REF_FRAME":"TEME","ECCENTRICITY":"0.00015890","SEMIMAJOR_AXIS":"6925.351","COUNTRY_CODE":"US","APOAPSIS":"548.316","DECAY_DATE":null,"PERIOD":"95.592","ELEMENT_SET_NO":"999","OBJECT_NAME":"STARLINK-1371","PERIAPSIS":"546.115","LAUNCH_DATE":"2020-04-22","REV_AT_EPOCH":"12765","TIME_SYSTEM":"UTC","MEAN_ELEMENT_THEORY":"SGP4","NORAD_CAT_ID":"45542","INCLINATION":"53.0547","MEAN_ANOMALY":"293.9507","RA_OF_ASC_NODE":"209.5830","CLASSIFICATION_TYPE":"U","RCS_SIZE":"LARGE","FILE":"3534546","BSTAR":"0.00003499100000","TLE_LINE1":"1 45542U 20025M   22223.66975898  .00000240  00000-0  34991-4 0  9994","EPOCH":"2022-08-11T16:04:27.175872","GP_ID":"210036215","ARG_OF_PERICENTER":"66.1649","SITE":"AFETR","EPHEMERIS_TYPE":"0","OBJECT_TYPE":"PAYLOAD","CENTER_NAME":"EARTH","MEAN_MOTION_DOT":"0.00000240","MEAN_MOTION":"15.06399342"},{"ELEMENT_SET_NO":"999","OBJECT_NAME":"STARLINK-1372","COUNTRY_CODE":"US","APOAPSIS":"548.316","PERIOD":"95.592","DECAY_DATE":null,"ECCENTRICITY":"0.00016280","SEMIMAJOR_AXIS":"6925.323","OBJECT_ID":"2020-025N","TLE_LINE2":"2 45543  53.0535 210.6036 0001628  71.9986 288.1180 15.06408279127627","REF_FRAME":"TEME","MEAN_MOTION_DDOT":"0.0000000000000","ARG_OF_PERICENTER":"71.9986","EPHEMERIS_TYPE":"0","SITE":"AFETR","CENTER_NAME":"EARTH","OBJECT_TYPE":"PAYLOAD","MEAN_MOTION_DOT":"-0.00005793","MEAN_MOTION":"15.06408279","TLE_LINE1":"1 45543U 20025N   22223.44123280 -.00005793  00000-0 -37025-3 0  9991","GP_ID":"210032401","EPOCH":"2022-08-11T10:35:22.513920","TIME_SYSTEM":"UTC","MEAN_ELEMENT_THEORY":"SGP4","MEAN_ANOMALY":"288.1180","INCLINATION":"53.0535","NORAD_CAT_ID":"45543","CLASSIFICATION_TYPE":"U","RA_OF_ASC_NODE":"210.6036","FILE":"3534360","RCS_SIZE":"LARGE","BSTAR":"-0.00037025000000","PERIAPSIS":"546.061","REV_AT_EPOCH":"12762","LAUNCH_DATE":"2020-04-22"},{"OBJECT_TYPE":"PAYLOAD","MEAN_MOTION_DOT":"-0.00000791","CENTER_NAME":"EARTH","MEAN_MOTION":"15.06389977","ARG_OF_PERICENTER":"76.5339","EPHEMERIS_TYPE":"0","SITE":"AFETR","EPOCH":"2022-08-11T15:48:32.357376","GP_ID":"210033213","TLE_LINE1":"1 45544U 20025P   22223.65870784 -.00000791  00000-0 -34222-4 0  9993","CLASSIFICATION_TYPE":"U","RA_OF_ASC_NODE":"209.6291","FILE":"3534412","RCS_SIZE":"LARGE","BSTAR":"-0.00003422200000","MEAN_ELEMENT_THEORY":"SGP4","TIME_SYSTEM":"UTC","MEAN_ANOMALY":"283.5810","NORAD_CAT_ID":"45544","INCLINATION":"53.0542","PERIAPSIS":"546.250","REV_AT_EPOCH":"12764","LAUNCH_DATE":"2020-04-22","OBJECT_NAME":"STARLINK-1373","ELEMENT_SET_NO":"999","DECAY_DATE":null,"PERIOD":"95.593","COUNTRY_CODE":"US","APOAPSIS":"548.239","SEMIMAJOR_AXIS":"6925.379","ECCENTRICITY":"0.00014360","TLE_LINE2":"2 45544  53.0542 209.6291 0001436  76.5339 283.5810 15.06389977127641","REF_FRAME":"TEME","MEAN_MOTION_DDOT":"0.0000000000000","OBJECT_ID":"2020-025P"}];
